BLUEWALKER-3            
1 53807U 22111AL  26178.50986275  .00005360  00000+0  14965-3 0  9997
2 53807  53.2300 345.5056 0005401 193.7532 166.3327 15.38397615211792
YUNHAI-1 03             
1 53877U 22115A   26178.52335988  .00000301  00000+0  12647-3 0  9994
2 53877  98.5534 176.5392 0005295  30.2203 329.9286 14.32725124196994
CENTISPACE-1 S5         
1 54020U 22126A   26178.53703492  .00000660  00000+0  16435-3 0  9994
2 54020  54.9973 171.5424 0014729  91.5538 268.7143 14.63027644198554
CENTISPACE-1 S6         
1 54021U 22126B   26178.53535402  .00000129  00000+0  62591-4 0  9994
2 54021  54.9975 173.4626 0016552  92.0191 268.2698 14.62296279198516
OTB-3-GAZELLE           
1 54023U 22127A   26178.46319154  .00000153  00000+0  59099-4 0  9999
2 54023  98.3947 170.0112 0013667 152.6781 207.5130 14.42678056195849
ASO-S                   
1 54029U 22129A   26178.52110110  .00000231  00000+0  68033-4 0  9990
2 54029  98.2747 183.4535 0015584  63.6423 296.6370 14.52066546196924
HJ-2E                   
1 54035U 22132A   26178.53859194  .00007512  00000+0  32593-3 0  9994
2 54035  97.3794 182.7288 0019166 338.2977  21.7445 15.22463054205996
COSMOS 2561             
1 54109U 22137A   26178.54386655  .00013178  00000+0  22047-3 0  9997
2 54109  96.9180 237.1578 0009252 358.6367   1.4860 15.51954499207957
GONETS-M 23             
1 54150U 22139A   26178.48588256  .00000029  00000+0  13581-3 0  9993
2 54150  82.5078 341.8931 0021338 196.6912 163.3468 12.42891313166926
GONETS-M 24             
1 54151U 22139B   26178.53945944  .00000031  00000+0  15513-3 0  9991
2 54151  82.4995 340.9125 0016413 206.4740 153.5503 12.42891948166932
GONETS-M 25             
1 54152U 22139C   26178.52586227  .00000030  00000+0  14796-3 0  9997
2 54152  82.5060 341.6129 0020328 205.4972 154.5107 12.42890421166931
SKIF-D                  
1 54153U 22139D   26177.45038105 -.00000014  00000+0  00000+0 0  9998
2 54153  89.9498  96.6653 0007400 195.3772 164.6521  5.00426928 64570
MATS                    
1 54227U 22147A   26178.48477191  .00004095  00000+0  28927-3 0  9999
2 54227  97.6819 180.0364 0013111 158.5868 201.5910 15.05414961199319
JILIN-1 GAOFEN 03D54    
1 54254U 22155D   26178.38887910  .00708437  26607-3  84299-3 0  9991
2 54254  97.6178 332.9514 0009107 261.2067  98.8184 16.08429099201939
EOS-6 (OCEANSAT-3)      
1 54361U 22158A   26178.53501947  .00000263  00000+0  84293-4 0  9995
2 54361  98.3546 276.5922 0000677  45.9800 314.1448 14.47006146189337
DONGPO 09               
1 54685U 22167D   26178.50474473  .00012621  00000+0  35583-3 0  9992
2 54685  97.6898 349.9739 0003581  92.9562 267.2091 15.36560714197036
DONGPO 08               
1 54686U 22167E   26178.50337472  .00011023  00000+0  33872-3 0  9994
2 54686  97.6862 347.1014 0009235 127.7153 232.4927 15.33849530196909
2022-167F               
1 54687U 22167F   26178.49768330  .00330344  46901-4  72241-3 0  9992
2 54687  97.6047   7.7360 0002920 241.4578 118.6404 15.98198654198471
DONGPO 10               
1 54689U 22167H   26178.50456951  .00011373  00000+0  34078-3 0  9998
2 54689  97.6943 349.0786 0006171  81.3713 278.8228 15.34661052196946
JILIN-1 GAOFEN 03D48    
1 54695U 22167P   26178.49709987  .00012130  00000+0  35434-3 0  9992
2 54695  97.6878 348.4523 0007514  84.6664 275.5436 15.35437833196972
STAR VIBE               
1 55009U 23001A   26178.48339634  .00015275  00000+0  34929-3 0  9998
2 55009  97.3172 242.9899 0006969  84.1173 276.0869 15.42893785193819
BRO-8                   
1 55011U 23001C   26178.51104498  .00029940  00000+0  54034-3 0  9996
2 55011  97.3213 243.8474 0006556  95.7453 264.4546 15.49677582193802
CONNECTA T1.2           
1 55012U 23001D   26178.42851749  .00046537  00000+0  78490-3 0  9998
2 55012  97.3265 249.3054 0005834  72.0536 288.1352 15.51510290194133
BIRKELAND               
1 55015U 23001G   26178.47685510  .00011305  00000+0  28269-3 0  9991
2 55015  97.3350 246.4733 0008065  75.9168 284.2974 15.40254725193935
ION SCV-008             
1 55051U 23001AU  26178.51515152  .00006432  00000+0  23275-3 0  9997
2 55051  97.5718 275.0062 0014027 341.5262  18.5467 15.28691641192910
ION SCV-007             
1 55060U 23001BD  26178.42372325  .00000404  00000+0  63692-4 0  9991
2 55060  97.9004 241.2356 0011133 306.8536  53.1653 14.77561766187762
HUYGENS                 
1 55093U 23001CN  26178.47692972  .00010243  00000+0  25617-3 0  9991
2 55093  97.3254 245.6899 0010419  54.5397 305.6820 15.40254198193955
SHARJAHSAT-1            
1 55104U 23001CZ  26178.44721749  .00021213  00000+0  38664-3 0  9991
2 55104  97.3179 247.3566 0006394  74.2921 285.9035 15.49463558194087
HORUS 1                 
1 55690U 23025A   26178.53170962  .00005850  00000+0  24900-3 0  9999
2 55690  97.3467 252.9086 0002097 138.6320 221.5077 15.23366535185621
HORUS 2                 
1 55844U 23032A   26178.50053328  .00006177  00000+0  26147-3 0  9999
2 55844  97.3539 253.6951 0002308  96.1815 263.9686 15.23530777183055
