OBJECT_NAME,OBJECT_ID,EPOCH,MEAN_MOTION,ECCENTRICITY,INCLINATION,RA_OF_ASC_NODE,ARG_OF_PERICENTER,MEAN_ANOMALY,EPHEMERIS_TYPE,CLASSIFICATION_TYPE,NORAD_CAT_ID,ELEMENT_SET_NO,REV_AT_EPOCH,BSTAR,MEAN_MOTION_DOT,MEAN_MOTION_DDOT
BLUEWALKER-3,2022-111AL,2026-06-27T12:14:12.141600,15.38397615,.0005401,53.2300,345.5056,193.7532,166.3327,0,U,53807,999,21179,.14965E-3,.536E-4,0
YUNHAI-1 03,2022-115A,2026-06-27T12:33:38.293632,14.32725124,.0005295,98.5534,176.5392,30.2203,329.9286,0,U,53877,999,19699,.12647E-3,.301E-5,0
CENTISPACE-1 S5,2022-126A,2026-06-27T12:53:19.817088,14.63027644,.0014729,54.9973,171.5424,91.5538,268.7143,0,U,54020,999,19855,.16435E-3,.66E-5,0
CENTISPACE-1 S6,2022-126B,2026-06-27T12:50:54.587328,14.62296279,.0016552,54.9975,173.4626,92.0191,268.2698,0,U,54021,999,19851,.62591E-4,.129E-5,0
OTB-3-GAZELLE,2022-127A,2026-06-27T11:06:59.749056,14.42678056,.0013667,98.3947,170.0112,152.6781,207.5130,0,U,54023,999,19584,.59099E-4,.153E-5,0
ASO-S,2022-129A,2026-06-27T12:30:23.135040,14.52066546,.0015584,98.2747,183.4535,63.6423,296.6370,0,U,54029,999,19692,.68033E-4,.231E-5,0
HJ-2E,2022-132A,2026-06-27T12:55:34.343616,15.22463054,.0019166,97.3794,182.7288,338.2977,21.7445,0,U,54035,999,20599,.32593E-3,.7512E-4,0
COSMOS 2561,2022-137A,2026-06-27T13:03:10.069920,15.51954499,.0009252,96.9180,237.1578,358.6367,1.4860,0,U,54109,999,20795,.22047E-3,.13178E-3,0
GONETS-M 23,2022-139A,2026-06-27T11:39:40.253184,12.42891313,.0021338,82.5078,341.8931,196.6912,163.3468,0,U,54150,999,16692,.13581E-3,.29E-6,0
GONETS-M 24,2022-139B,2026-06-27T12:56:49.295616,12.42891948,.0016413,82.4995,340.9125,206.4740,153.5503,0,U,54151,999,16693,.15513E-3,.31E-6,0
GONETS-M 25,2022-139C,2026-06-27T12:37:14.500128,12.42890421,.0020328,82.5060,341.6129,205.4972,154.5107,0,U,54152,999,16693,.14796E-3,.3E-6,0
SKIF-D,2022-139D,2026-06-26T10:48:32.922720,5.00426928,.00074,89.9498,96.6653,195.3772,164.6521,0,U,54153,999,6457,0,-.14E-6,0
MATS,2022-147A,2026-06-27T11:38:04.293024,15.05414961,.0013111,97.6819,180.0364,158.5868,201.5910,0,U,54227,999,19931,.28927E-3,.4095E-4,0
JILIN-1 GAOFEN 03D54,2022-155D,2026-06-27T09:19:59.154240,16.08429099,.0009107,97.6178,332.9514,261.2067,98.8184,0,U,54254,999,20193,.84299E-3,.708437E-2,.26607E-3
EOS-6 (OCEANSAT-3),2022-158A,2026-06-27T12:50:25.682208,14.47006146,.0000677,98.3546,276.5922,45.9800,314.1448,0,U,54361,999,18933,.84293E-4,.263E-5,0
DONGPO 09,2022-167D,2026-06-27T12:06:49.944672,15.36560714,.0003581,97.6898,349.9739,92.9562,267.2091,0,U,54685,999,19703,.35583E-3,.12621E-3,0
DONGPO 08,2022-167E,2026-06-27T12:04:51.575808,15.33849530,.0009235,97.6862,347.1014,127.7153,232.4927,0,U,54686,999,19690,.33872E-3,.11023E-3,0
2022-167F,2022-167F,2026-06-27T11:56:39.837120,15.98198654,.000292,97.6047,7.7360,241.4578,118.6404,0,U,54687,999,19847,.72241E-3,.330344E-2,.46901E-4
DONGPO 10,2022-167H,2026-06-27T12:06:34.805664,15.34661052,.0006171,97.6943,349.0786,81.3713,278.8228,0,U,54689,999,19694,.34078E-3,.11373E-3,0
JILIN-1 GAOFEN 03D48,2022-167P,2026-06-27T11:55:49.428768,15.35437833,.0007514,97.6878,348.4523,84.6664,275.5436,0,U,54695,999,19697,.35434E-3,.1213E-3,0
STAR VIBE,2023-001A,2026-06-27T11:36:05.443776,15.42893785,.0006969,97.3172,242.9899,84.1173,276.0869,0,U,55009,999,19381,.34929E-3,.15275E-3,0
BRO-8,2023-001C,2026-06-27T12:15:54.286272,15.49677582,.0006556,97.3213,243.8474,95.7453,264.4546,0,U,55011,999,19380,.54034E-3,.2994E-3,0
CONNECTA T1.2,2023-001D,2026-06-27T10:17:03.911136,15.51510290,.0005834,97.3265,249.3054,72.0536,288.1352,0,U,55012,999,19413,.7849E-3,.46537E-3,0
BIRKELAND,2023-001G,2026-06-27T11:26:40.280640,15.40254725,.0008065,97.3350,246.4733,75.9168,284.2974,0,U,55015,999,19393,.28269E-3,.11305E-3,0
ION SCV-008,2023-001AU,2026-06-27T12:21:49.091328,15.28691641,.0014027,97.5718,275.0062,341.5262,18.5467,0,U,55051,999,19291,.23275E-3,.6432E-4,0
ION SCV-007,2023-001BD,2026-06-27T10:10:09.688800,14.77561766,.0011133,97.9004,241.2356,306.8536,53.1653,0,U,55060,999,18776,.63692E-4,.404E-5,0
HUYGENS,2023-001CN,2026-06-27T11:26:46.727808,15.40254198,.0010419,97.3254,245.6899,54.5397,305.6820,0,U,55093,999,19395,.25617E-3,.10243E-3,0
SHARJAHSAT-1,2023-001CZ,2026-06-27T10:43:59.591136,15.49463558,.0006394,97.3179,247.3566,74.2921,285.9035,0,U,55104,999,19408,.38664E-3,.21213E-3,0
HORUS 1,2023-025A,2026-06-27T12:45:39.711168,15.23366535,.0002097,97.3467,252.9086,138.6320,221.5077,0,U,55690,999,18562,.249E-3,.585E-4,0
HORUS 2,2023-032A,2026-06-27T12:00:46.075392,15.23530777,.0002308,97.3539,253.6951,96.1815,263.9686,0,U,55844,999,18305,.26147E-3,.6177E-4,0
